{"type":"FeatureCollection","features":[{"type":"Feature","id":9962,"geometry":{"type":"Polygon","coordinates":[[[113.87346487399998,-6.981981817000019],[113.87317636,-6.9819420700000023],[113.87316844500003,-6.9819409799999903],[113.87294188400006,-6.9822762269999998],[113.87289246,-6.98234936099999],[113.87250248099997,-6.9822258550000242],[113.87247337199994,-6.9822166359999756],[113.87245445600001,-6.9824433659999841],[113.87245292800003,-6.9824616660000061],[113.87230459199998,-6.9827579889999924],[113.872192993,-6.9829809220000243],[113.87216672199997,-6.9830334019999896],[113.871982731,-6.9829517250000208],[113.87146263700004,-6.9828761669999722],[113.87142054000003,-6.9828700489999846],[113.87141675600003,-6.9831187249999971],[113.87141541300002,-6.9832068829999798],[113.87126208799998,-6.983288559000016],[113.87119053799995,-6.9832170920000181],[113.87105765499996,-6.983196673000009],[113.87094521899996,-6.9832170920000181],[113.87074078399996,-6.9832681419999858],[113.87064879000002,-6.9832375120000165],[113.87058745800005,-6.9831660450000186],[113.870422233,-6.9832386580000048],[113.87033191800003,-6.9832783520000135],[113.87045063999994,-6.9835493950000114],[113.87047502200005,-6.9836050559999876],[113.87001845600003,-6.9836843649999878],[113.87000482500002,-6.983686734999992],[113.86996715299995,-6.9837384699999916],[113.86984127699998,-6.983911341999999],[113.86970429400003,-6.983911341999999],[113.86969817600004,-6.983911341999999],[113.86967934300003,-6.983974040000021],[113.86966751,-6.9840134379999768],[113.86942219100001,-6.9840644880000013],[113.86938130399994,-6.9839623899999879],[113.86903376600003,-6.9838807169999768],[113.86869645199999,-6.9837479899999835],[113.86845113200002,-6.9837479899999835],[113.86745963199996,-6.9836969419999946],[113.86674411499996,-6.9834621229999811],[113.86593187999995,-6.983144201000016],[113.86583103600003,-6.9831047280000007],[113.86527906599997,-6.9830230509999751],[113.864972416,-6.9830638899999826],[113.86485007800002,-6.9830791640000029],[113.86481882600003,-6.9830830660000061],[113.86478103599995,-6.9830480229999807],[113.86475199100005,-6.9830289569999877],[113.86471303500002,-6.9830110369999829],[113.86466300999996,-6.9829999599999724],[113.864646032,-6.9829790179999804],[113.86459503000003,-6.982880955999974],[113.86450199499996,-6.9828350010000122],[113.86442399500004,-6.9827969940000116],[113.86438399500003,-6.9827789899999857],[113.86433699199995,-6.9827620230000207],[113.86422900399998,-6.982734043999983],[113.86419530700005,-6.9827904410000201],[113.86399000599999,-6.983134036000024],[113.86387399,-6.9833669820000068],[113.86386097699994,-6.9834219830000279],[113.86385001500003,-6.9834950370000115],[113.86381701000005,-6.9835730130000115],[113.86377402799997,-6.9836410219999721],[113.86372497699995,-6.9836919960000046],[113.86369331000003,-6.9837123840000004],[113.86364360000005,-6.9837887680000108],[113.86341141399998,-6.9837114640000095],[113.86336761699999,-6.9836968829999932],[113.86330628500002,-6.9837887680000108],[113.86327562199995,-6.9840235870000242],[113.86336761699999,-6.9840133789999754],[113.86333051300005,-6.9841122010000163],[113.86330628500002,-6.9841767300000015],[113.86327094900003,-6.9841767300000015],[113.863234734,-6.9841767300000015],[113.86312229500004,-6.9844830189999811],[113.86302007899997,-6.9845851129999801],[113.86263165699995,-6.9846872109999936],[113.86251921799999,-6.9848505630000091],[113.86245788799999,-6.9850292290000198],[113.862396558,-6.9852078960000199],[113.862263676,-6.9851772669999832],[113.86223261099997,-6.9851743629999987],[113.86222998899996,-6.9851730230000157],[113.86214397200001,-6.9851039910000168],[113.86207698299995,-6.9850129850000258],[113.86201702699998,-6.9848770390000254],[113.86195698899996,-6.9847889679999753],[113.86191897399999,-6.9847539699999857],[113.86181199400005,-6.9847200230000226],[113.86170499399998,-6.984731963999991],[113.86162701600006,-6.9847589949999929],[113.86152001999994,-6.9848570220000283],[113.86143696800002,-6.9849569809999821],[113.86128498000005,-6.9850380269999732],[113.86105196300002,-6.9850979789999883],[113.860846004,-6.9851320180000016],[113.860685031,-6.9851700309999956],[113.86068098800001,-6.9851988920000281],[113.86066402200004,-6.985320019000028],[113.86066997099999,-6.9854280179999932],[113.86054096500004,-6.9857689890000074],[113.86026298299998,-6.9859880139999859],[113.86002599999995,-6.9864380390000065],[113.85980102799999,-6.9865089580000017],[113.85981101699997,-6.9868030160000103],[113.85971900000004,-6.9870350040000062],[113.85926827599997,-6.9873432389999834],[113.85924600600003,-6.9873339609999903],[113.85783496800002,-6.9867459970000141],[113.85780396999996,-6.9867369710000276],[113.85772403500005,-6.986761032000004],[113.85770004400001,-6.9867734189999737],[113.85768423299999,-6.9867668389999835],[113.85701647600001,-6.9872432440000125],[113.85697850999998,-6.9872703309999906],[113.85560925200002,-6.9874668769999744],[113.85507766900002,-6.987558421000017],[113.85474772099997,-6.9874211059999993],[113.85419780799998,-6.9873295639999924],[113.85386785900005,-6.9876408100000162],[113.85350125100001,-6.9877689720000262],[113.85259389299995,-6.9879154430000199],[113.85256639700003,-6.9877140460000078],[113.85252973499996,-6.9874485689999801],[113.85252057000002,-6.9871098570000072],[113.85244948800005,-6.9868915270000116],[113.85241300600001,-6.9865096699999754],[113.85220753399994,-6.9861654150000163],[113.85192123900003,-6.9859017310000127],[113.85173683100004,-6.9857589609999877],[113.85145129499995,-6.98563403899999],[113.85124904199995,-6.9856280910000237],[113.85091591599996,-6.9856102449999753],[113.85073738200003,-6.985558889999993],[113.85067202200003,-6.9854615300000091],[113.85066997599995,-6.9854508880000026],[113.85066498699996,-6.9854500019999932],[113.85063896199995,-6.9855850249999776],[113.85064299600003,-6.9857339580000257],[113.85064799199995,-6.9859429559999739],[113.85057702400002,-6.986117997000008],[113.85053202200004,-6.9862219710000204],[113.850479006,-6.9862709810000183],[113.85033100500004,-6.9863709699999959],[113.850243965,-6.9864900129999796],[113.85010502900002,-6.9868180359999883],[113.84998399400001,-6.9869750429999726],[113.84983097199995,-6.9869599790000052],[113.84981600699996,-6.9869759680000243],[113.84985500000005,-6.9870860280000215],[113.84965302900002,-6.9871019739999838],[113.84959198299998,-6.9871179709999751],[113.84928202799995,-6.9872790109999983],[113.84849501300005,-6.9876990280000086],[113.84756100699997,-6.9886809870000093],[113.84705002500004,-6.9891869570000154],[113.846686019,-6.9895960129999821],[113.846489013,-6.9897919599999909],[113.84619228400004,-6.9901468400000226],[113.84604499099999,-6.9903229980000106],[113.84593098200003,-6.9904339839999921],[113.84554299700005,-6.990516002999982],[113.84507397499999,-6.9905760170000235],[113.84479696699998,-6.9908100260000197],[113.84448601500003,-6.9910289730000272],[113.84429197400004,-6.991136014999995],[113.843966002,-6.9912389780000126],[113.84375999099996,-6.9912899939999988],[113.84320502100002,-6.9914529640000183],[113.84279397299997,-6.9915810100000044],[113.84263401500004,-6.9916770049999855],[113.84195201700004,-6.9918329729999869],[113.84186902199997,-6.9918569600000069],[113.841769989,-6.9918799600000057],[113.84162601699995,-6.9919190400000275],[113.841499,-6.9919260400000098],[113.84130797,-6.9920009960000016],[113.84099298900003,-6.9921339690000082],[113.84078698099995,-6.9922350300000176],[113.84071898299999,-6.9922359820000111],[113.84062298599997,-6.9929089980000185],[113.84065696899995,-6.9934980329999803],[113.84088484699998,-6.9940258539999718],[113.84090502799995,-6.9940740349999828],[113.84104925300005,-6.9944066610000277],[113.84128396100004,-6.9949479709999878],[113.841161575,-6.9957728250000173],[113.840975985,-6.9969659669999942],[113.84087903199998,-6.9975299569999834],[113.84088898599998,-6.9976100210000141],[113.84093297000004,-6.9977439919999824],[113.841009966,-6.9978989879999745],[113.84106900300003,-6.9980559919999905],[113.84111200799998,-6.9980650350000246],[113.84119797200003,-6.9980509659999939],[113.84120101799999,-6.9985419949999823],[113.84120598499999,-6.9986849620000271],[113.84136916700004,-6.9992856200000233],[113.841446002,-6.9995700360000228],[113.84153798700004,-6.9998359609999738],[113.84161499200002,-7.0001279950000139],[113.841702016,-7.0003749780000248],[113.84175191400004,-7.0004636859999891],[113.84194503399999,-7.0008070150000208],[113.84219297599998,-7.0009189740000011],[113.84224579800002,-7.0009409410000103],[113.84276703600005,-7.0011730429999943],[113.84317103399997,-7.0013939899999968],[113.84309096499999,-7.0018149719999769],[113.843225598,-7.0019347680000124],[113.84337001100005,-7.002100994999978],[113.84345397300001,-7.0021379730000035],[113.84371302900001,-7.002262963000021],[113.84382400799996,-7.0023160399999824],[113.84407802600003,-7.0023109780000254],[113.84445402300003,-7.0024759980000226],[113.84464599,-7.002591998000014],[113.84487699500005,-7.0026039680000167],[113.84510399299995,-7.0026559820000216],[113.84520098600001,-7.0026160090000076],[113.84555998400003,-7.0027199759999803],[113.84569399400004,-7.0027960379999854],[113.845734612,-7.0028406399999881],[113.84584066699995,-7.0029460609999887],[113.84590900299997,-7.0030719659999932],[113.84589298200001,-7.0032460410000112],[113.84597000400004,-7.0034539729999779],[113.84599202200002,-7.0036909599999717],[113.84583399999997,-7.0039590299999759],[113.84580993899999,-7.0039785430000165],[113.84579136100001,-7.0043597939999813],[113.84576796700003,-7.0046279790000199],[113.84563832100002,-7.0047341839999717],[113.84560799600001,-7.0047590259999879],[113.84551800700001,-7.0048720350000053],[113.84549333099994,-7.0050187520000122],[113.84547034100001,-7.0051187619999951],[113.84541108300004,-7.0052331269999968],[113.84529600400003,-7.0053850219999845],[113.84528696400002,-7.00554198399999],[113.84530501999996,-7.0057160349999776],[113.84534601899998,-7.0058859729999767],[113.84534342400002,-7.0059933140000226],[113.84533084099996,-7.0061354260000144],[113.84528799300006,-7.0063139569999748],[113.84526292500004,-7.0064699870000027],[113.84525199400002,-7.0065380190000042],[113.84525134900002,-7.0065965630000164],[113.84525002299995,-7.0067169789999753],[113.84518597500005,-7.0067669590000037],[113.84450396600005,-7.0073419930000114],[113.84466199400003,-7.0074680430000171],[113.84479597699999,-7.0075639749999823],[113.84493400899999,-7.0076390180000203],[113.84489796800005,-7.0077700379999897],[113.84496901199998,-7.0078160400000229],[113.84506699999997,-7.0080629569999928],[113.84499797800004,-7.0082640009999864],[113.84487268500004,-7.0087357759999804],[113.84472402899996,-7.0092490189999808],[113.84505944600005,-7.009398831999988],[113.84528998200005,-7.0095780130000094],[113.84516202700001,-7.0098980220000158],[113.84557105800002,-7.0103674729999739],[113.84568188100002,-7.0102817999999729],[113.84572104599999,-7.0102559360000214],[113.84577098199998,-7.0102229600000214],[113.84593200899997,-7.0101180120000208],[113.84611397000003,-7.0099980319999986],[113.84616668199999,-7.0099658739999882],[113.84651403400005,-7.0097539679999841],[113.84658930700004,-7.0097632060000024],[113.84670201200004,-7.0097770369999921],[113.84685699500005,-7.0098560409999777],[113.84687948700002,-7.0099325460000159],[113.846896969,-7.009992020000027],[113.84684798800004,-7.0102759619999802],[113.84699901500005,-7.0103419800000211],[113.84705267699997,-7.0103539090000027],[113.847251024,-7.0103979930000264],[113.84774697900002,-7.0104849560000275],[113.84782802899997,-7.010487908000016],[113.84805098499999,-7.0104960290000236],[113.84814152700005,-7.0104772259999777],[113.84821497600001,-7.0104619730000195],[113.84836499400001,-7.0104110190000029],[113.84860000200001,-7.0104430160000106],[113.84869396500005,-7.0104319669999882],[113.84897198399995,-7.0104369649999967],[113.84924997200005,-7.0104860440000039],[113.84925849499996,-7.0104920160000006],[113.84926697200001,-7.0104979569999841],[113.84921102400006,-7.0106660430000147],[113.84913622600004,-7.0108618589999878],[113.84908499699998,-7.0109959760000038],[113.84902802900001,-7.0111189919999788],[113.84900672900005,-7.0111720599999785],[113.84895097499998,-7.0113109640000175],[113.84892374200001,-7.0114018470000019],[113.84890302999997,-7.0114709619999758],[113.84886701400001,-7.0116179699999748],[113.84885602899999,-7.0117490200000248],[113.84880803099998,-7.0119859789999737],[113.84876936299997,-7.0122130010000205],[113.84876921299997,-7.0122138799999902],[113.84871400199995,-7.0125380270000051],[113.848711514,-7.0125505159999761],[113.848670008,-7.012758974999997],[113.84862840400001,-7.0130348899999717],[113.84859991400003,-7.0132238169999823],[113.84859897599995,-7.0132300380000174],[113.84855870700005,-7.0134309509999753],[113.84853203199998,-7.0135640390000162],[113.84851243200001,-7.0136818469999866],[113.84847397600004,-7.013912984000001],[113.84832896499995,-7.0139290390000042],[113.84831697599998,-7.014078971999993],[113.84817800500002,-7.0140829779999763],[113.84807303399998,-7.0140740400000254],[113.84800300200004,-7.0141949680000266],[113.84798900400006,-7.0142349800000261],[113.84799888099997,-7.0142902399999798],[113.84800598699996,-7.0143299970000044],[113.84802900499994,-7.0144239819999825],[113.84802197099998,-7.0144569959999785],[113.84792199499998,-7.0146320339999875],[113.84802200800004,-7.0146469640000078],[113.84810365800001,-7.0146495000000186],[113.84815103400001,-7.0146509690000016],[113.84830299999999,-7.0146499560000279],[113.84843500199997,-7.0146769770000219],[113.84849400899998,-7.0146319940000126],[113.84863900699997,-7.0146379789999855],[113.84862600700001,-7.0146830439999803],[113.84874103000004,-7.0146770160000074],[113.84884927600001,-7.0146925600000145],[113.84893597300004,-7.0147050090000107],[113.84903702199995,-7.0147310460000085],[113.84900301000005,-7.0149380199999882],[113.84914996700002,-7.0149719959999857],[113.84930800500001,-7.0147559559999877],[113.84931697299999,-7.0147469579999893],[113.84962197000004,-7.0147980410000059],[113.84972998800004,-7.0145720059999803],[113.849958034,-7.014624007000009],[113.85019701800002,-7.0146350210000037],[113.85022702900005,-7.0145549860000074],[113.85034298300002,-7.0145670179999797],[113.85032597999998,-7.0147140029999946],[113.85033498400003,-7.014808974999994],[113.85034996599995,-7.0148570329999984],[113.85051200800001,-7.0148209980000047],[113.85066213499999,-7.0148883890000207],[113.85072802599996,-7.0149179669999739],[113.85076482199997,-7.0149371559999736],[113.85089102699999,-7.0150029740000264],[113.85096696799997,-7.0150569809999865],[113.85088797000003,-7.0151990109999929],[113.85083297599999,-7.0152910319999933],[113.85105001800002,-7.0154090409999981],[113.85119602600003,-7.0154710250000107],[113.85130496800002,-7.0155070370000203],[113.85139103500001,-7.0155339770000182],[113.85135102300001,-7.0156739619999939],[113.85130098699995,-7.0157840200000123],[113.85125198900005,-7.0158809719999908],[113.85131598800001,-7.0159209610000062],[113.85139601599997,-7.0159969860000047],[113.85147696599995,-7.0160039909999909],[113.85157496800002,-7.0159949950000282],[113.85164996900005,-7.0158089970000219],[113.85176299900002,-7.0157940380000241],[113.85179902599998,-7.0158080009999821],[113.851937023,-7.0159379620000095],[113.85197003400003,-7.0159710039999936],[113.85202897600004,-7.0160009969999919],[113.85210500899996,-7.0160210399999983],[113.85219374799999,-7.016036817999975],[113.85233000100004,-7.0160610440000255],[113.85240998999996,-7.0160939799999937],[113.85250398200003,-7.0161489640000241],[113.85262100399996,-7.0162140130000239],[113.85268202500004,-7.0162790420000078],[113.85274800699995,-7.0163630100000205],[113.85281498799998,-7.0164149959999804],[113.85292202100004,-7.0164559880000184],[113.85304402400004,-7.0164819830000056],[113.85316002800005,-7.0165149709999923],[113.85331099500002,-7.0165460310000185],[113.85350501200003,-7.0165689689999908],[113.85358757799997,-7.0165927919999831],[113.85361601700004,-7.0166009939999867],[113.853693991,-7.016634033999992],[113.85375398300005,-7.0166770270000143],[113.85363497499998,-7.0171790009999881],[113.85358299100005,-7.0175199579999799],[113.85359802799996,-7.0175400109999941],[113.85377301000005,-7.0177430059999892],[113.85369696500004,-7.017977970000004],[113.85376299999996,-7.0180460380000227],[113.85370603499996,-7.0182549599999788],[113.85348259299997,-7.0181546229999867],[113.85348558500004,-7.0186453750000055],[113.85348563399998,-7.0186534669999787],[113.85348841200005,-7.0191091849999907],[113.85357232299998,-7.020027199000026],[113.853603045,-7.0201734940000051],[113.85375803900001,-7.0209115549999979],[113.85349018600004,-7.0220384840000065],[113.85363395900004,-7.0219732680000106],[113.85364823700002,-7.0219209200000137],[113.85373865600002,-7.0217686350000008],[113.85381479800003,-7.0217495989999748],[113.85405274499999,-7.0218352589999995],[113.85421454799996,-7.0219114020000006],[113.85441238299995,-7.0220454399999994],[113.85447249100002,-7.021930325000028],[113.85450411099998,-7.0218512210000199],[113.85459621699999,-7.0218642240000122],[113.85500974599995,-7.0219226070000218],[113.85518544700005,-7.0219534459999977],[113.85612809300005,-7.0221189110000068],[113.85671105999995,-7.0222973699999898],[113.85669170000006,-7.0224597339999946],[113.85669110100002,-7.0224647620000269],[113.85668556300004,-7.0224775579999914],[113.85667301599995,-7.0225139969999759],[113.85646698400001,-7.023064015999978],[113.85603400399998,-7.0238770199999863],[113.85493901300003,-7.0258169659999794],[113.85559200700004,-7.0259979850000036],[113.85627598500002,-7.0262460199999737],[113.85685601,-7.026493964999986],[113.85732501099994,-7.0267430389999959],[113.857755989,-7.0268959599999903],[113.85785599200005,-7.0267259789999912],[113.85788099199999,-7.0266560000000027],[113.85805001000006,-7.0267239840000002],[113.85832203500001,-7.0268329799999947],[113.85833800399996,-7.0268469719999871],[113.85820600500006,-7.027259961000027],[113.85861903199998,-7.0273549959999855],[113.85869800800003,-7.0274050099999954],[113.85863996399996,-7.0276320070000224],[113.85861300199997,-7.0278080439999826],[113.85847701499995,-7.0279590050000138],[113.85842796999998,-7.0280720380000048],[113.85840303299995,-7.0282380379999836],[113.85838103200001,-7.0283350070000097],[113.85818000699999,-7.0285449900000003],[113.85812497500001,-7.0285940140000207],[113.85819698299997,-7.0286869770000067],[113.85865702399997,-7.0288119869999832],[113.85913802799996,-7.0289140159999874],[113.85964297099997,-7.0291139980000139],[113.859923009,-7.0292769600000042],[113.85994500499999,-7.0292399699999919],[113.85996499999999,-7.0291319930000213],[113.86003597700005,-7.0290079860000105],[113.86007799499998,-7.0289650029999962],[113.86009598500004,-7.028967965999982],[113.86011602999997,-7.0289899730000229],[113.86012696800003,-7.0290349819999847],[113.86013896899999,-7.0291560439999898],[113.86029102999998,-7.0291580040000099],[113.86040903000003,-7.0292120249999925],[113.86057898299998,-7.0292009589999793],[113.86058997299995,-7.0291690050000284],[113.86059398400005,-7.0290080120000198],[113.86060797799996,-7.0289549909999778],[113.86063698700002,-7.028930967000008],[113.86071700299999,-7.0287730300000248],[113.86074198100005,-7.0287360230000218],[113.86090698400005,-7.0288180289999787],[113.861043021,-7.0287850400000025],[113.86116702300001,-7.0287960250000197],[113.86138302899997,-7.0288529690000132],[113.86162999999999,-7.0289379970000141],[113.86168500700001,-7.0289699990000258],[113.86152700499997,-7.0291910110000231],[113.86157199599995,-7.0292440310000188],[113.86159396999994,-7.0293009860000097],[113.86151001999997,-7.0294620170000144],[113.86151000699999,-7.0295330199999739],[113.86153699800002,-7.029580999000018],[113.86161100899994,-7.0296480239999823],[113.86171700399996,-7.0297140399999876],[113.86193699600005,-7.0297399759999735],[113.86207179099995,-7.0297236160000125],[113.86210248299994,-7.0297914459999902],[113.86211668600004,-7.0298822330000235],[113.86213539799996,-7.0299547440000083],[113.86230507799996,-7.0301671589999728],[113.86249116399995,-7.03007524100002],[113.86273732799998,-7.0301373259999878],[113.86290927300001,-7.0299772949999806],[113.86287715499998,-7.0299320529999818],[113.86286223000002,-7.0297232080000072],[113.86296626299998,-7.0296271830000023],[113.86317506399996,-7.0295305189999908],[113.86344812699997,-7.029528847999984],[113.86359888000004,-7.029609674000028],[113.86369040900001,-7.0296999889999938],[113.86400177300004,-7.0299977999999896],[113.86397964299999,-7.0300979319999897],[113.86406712400003,-7.030269928999985],[113.86402897000005,-7.0307243450000101],[113.86448435099999,-7.030757871999981],[113.864685538,-7.0309156229999985],[113.86487988900001,-7.030870804000017],[113.865073048,-7.0309592300000077],[113.86524992,-7.031019031000028],[113.86520214400002,-7.0310833670000079],[113.86546210200004,-7.0310849370000028],[113.86613313299995,-7.0311417120000215],[113.866169754,-7.0313496100000066],[113.86631238400003,-7.0315889249999941],[113.86628270999995,-7.0317650609999873],[113.86654489,-7.0318226580000101],[113.86667323300003,-7.0318488859999775],[113.86665653199998,-7.0317117449999955],[113.86666550200005,-7.0316060050000146],[113.86677775800001,-7.0315860759999964],[113.86687866700004,-7.0312972130000162],[113.86700341699998,-7.0312356570000247],[113.86741156999994,-7.03132601599998],[113.86744125300004,-7.0314603360000092],[113.86777224000002,-7.0315287660000081],[113.86778890200003,-7.0316310989999806],[113.86800372899995,-7.0317509160000213],[113.86828972000001,-7.0317780689999836],[113.86830458500003,-7.0318429260000244],[113.86853647099997,-7.0318993170000113],[113.86858409900003,-7.0319928779999827],[113.86899742499998,-7.0321239429999878],[113.86897253699999,-7.0321998840000219],[113.86907762999999,-7.0322281460000227],[113.86914960599995,-7.0321699820000276],[113.86934849199997,-7.0321470829999839],[113.86940339800003,-7.0322478260000025],[113.86966434800001,-7.0323256290000131],[113.86966835800001,-7.0323834139999803],[113.87010913999995,-7.0326261380000119],[113.87046828200005,-7.0327377520000027],[113.87057911800002,-7.0328752770000165],[113.87098342499996,-7.0330435210000246],[113.87122955899997,-7.0326639799999953],[113.87105342699999,-7.0325065299999778],[113.87117847000002,-7.0323106499999994],[113.87140774399995,-7.0325002920000088],[113.87131923899994,-7.0326715589999935],[113.87144663000004,-7.0328577610000025],[113.87141066799995,-7.0329758639999795],[113.87152167900001,-7.0331418420000205],[113.87165237099998,-7.0331978579999941],[113.87184222300004,-7.0335976669999809],[113.871929626,-7.0336474439999961],[113.87201705899997,-7.0337018299999841],[113.87220921699998,-7.0336274840000215],[113.87247640600003,-7.0338225820000275],[113.87231269400002,-7.0340477849999843],[113.87231306000001,-7.0341073110000139],[113.87244196999995,-7.0341888120000249],[113.87269064999998,-7.0343566519999854],[113.87292542099999,-7.0345061539999847],[113.87283513900002,-7.0347401199999808],[113.87344786599999,-7.0351984850000235],[113.87341603899995,-7.0352490849999754],[113.87376955299999,-7.0356695699999818],[113.87436481700001,-7.0364036359999886],[113.87470218099998,-7.0366592739999874],[113.87552934899998,-7.0367377470000179],[113.87576553700001,-7.036802324000007],[113.875936411,-7.036517186000026],[113.87601053000003,-7.0364076139999838],[113.87623868499998,-7.0360881569999947],[113.87654874099997,-7.0353608130000111],[113.87672212300004,-7.0349140590000161],[113.876681007,-7.034885676999977],[113.87686196100003,-7.0343243390000225],[113.87786764400005,-7.034608473999981],[113.87813470200001,-7.0347213690000103],[113.87831336700003,-7.0344544299999825],[113.87837496099996,-7.0344786229999841],[113.878761586,-7.0347175129999755],[113.87895069499996,-7.0348144469999738],[113.87925950800002,-7.0348659320000024],[113.87930035700003,-7.0347183530000166],[113.87939172300003,-7.0345883479999998],[113.87946336699997,-7.0344887260000064],[113.87958117599999,-7.0342572100000211],[113.87974098200004,-7.0340885730000196],[113.87985231499999,-7.0339796729999762],[113.87995018200002,-7.0340331780000156],[113.88016174899997,-7.0341564400000038],[113.88017321899997,-7.0341637120000087],[113.88033939599995,-7.0342690719999723],[113.88029772100003,-7.0344275850000031],[113.88029428300001,-7.0345351889999961],[113.880339499,-7.0346120519999999],[113.88038025000003,-7.0346179460000258],[113.88047778299995,-7.034605149000015],[113.88052279999999,-7.0345046080000202],[113.88057016200003,-7.0343855309999981],[113.88060444899997,-7.0343830620000176],[113.88098511099997,-7.0344652659999838],[113.88111036400005,-7.0343524859999889],[113.88112597199995,-7.0342838299999926],[113.88106069000003,-7.0340968890000113],[113.88110995,-7.0339229720000276],[113.88124579299995,-7.0338346070000171],[113.88141994,-7.0336457390000078],[113.881522335,-7.03352677700002],[113.88156564099995,-7.0334390720000215],[113.88156533999995,-7.0333902049999892],[113.88158024999996,-7.033305203999987],[113.88158773500004,-7.0332614380000109],[113.88160567099999,-7.0332433519999995],[113.88168557799997,-7.0332505380000043],[113.88193108400003,-7.0333390850000228],[113.88200565800003,-7.0333155019999936],[113.88202864200002,-7.0332818480000014],[113.88203875299996,-7.0332406850000098],[113.882048661,-7.0331788409999945],[113.88204826399999,-7.0331145270000093],[113.88207365100004,-7.0330475270000079],[113.88214513299999,-7.0327766400000087],[113.88227053200001,-7.0326032489999761],[113.88243113399994,-7.0326847310000176],[113.88263810399997,-7.032340836000003],[113.88272849400005,-7.0323428089999993],[113.88284897300002,-7.03210919899999],[113.88305003000005,-7.0317135810000195],[113.88332980400003,-7.0318452750000233],[113.883618254,-7.031956589999993],[113.88372293999998,-7.031967509000026],[113.88380854699994,-7.0319312990000071],[113.88383401099998,-7.0318769450000218],[113.88385378500004,-7.0317219990000126],[113.88343638499998,-7.0315466210000181],[113.88336598599994,-7.0314489599999774],[113.88350894500002,-7.0311608299999762],[113.88358321299995,-7.0309309369999937],[113.88329698099994,-7.0308013719999849],[113.88324753699999,-7.0307789920000232],[113.88325024799997,-7.0307470889999877],[113.88338253799998,-7.0304818800000248],[113.883434384,-7.0304856259999724],[113.88371949899999,-7.0300567950000072],[113.88383063900005,-7.0301224099999899],[113.88408283700005,-7.0297490610000182],[113.88412823500005,-7.0296259340000233],[113.88417610700003,-7.0293960220000145],[113.88444284900004,-7.0294909400000165],[113.88450223899997,-7.029512072999978],[113.88457753800003,-7.0295915169999716],[113.88473716800002,-7.0297599360000049],[113.885110973,-7.0299743109999895],[113.88512523199995,-7.0299824869999838],[113.88514876500005,-7.0299959829999921],[113.88521759800005,-7.0300354589999756],[113.88527777599995,-7.0300266959999931],[113.88533049399996,-7.0300190199999975],[113.88603830600005,-7.0299159539999891],[113.88625718200001,-7.0300032170000009],[113.88641005299996,-7.0300871540000003],[113.88641677700002,-7.0300908469999968],[113.88644096099995,-7.0301100280000242],[113.88655068599996,-7.0301970599999777],[113.88681014099996,-7.030383248000021],[113.88685171199995,-7.0304130779999809],[113.88690393399997,-7.0304338569999913],[113.88697041900002,-7.0304603100000236],[113.88720883300005,-7.030475550999995],[113.88731760899998,-7.030544974999998],[113.88733417499998,-7.0305616350000264],[113.88746490300002,-7.0306931100000156],[113.88762970699997,-7.0307952580000119],[113.88778236500002,-7.0308898750000139],[113.88802291699994,-7.0309613790000185],[113.888206266,-7.0310070369999949],[113.88838953699997,-7.0310526979999963],[113.88850748699997,-7.0311206989999846],[113.88873041199997,-7.0312492250000105],[113.888876138,-7.0312783370000034],[113.889140881,-7.0314124129999982],[113.88925341799995,-7.0314998220000007],[113.88932878499998,-7.0315127480000115],[113.88947096200002,-7.0315886660000047],[113.889760959,-7.0317555120000179],[113.88985806799997,-7.031845302000022],[113.88989123299996,-7.0318847219999725],[113.89001205199997,-7.0320826419999776],[113.89007344200002,-7.0321568819999811],[113.89013911500001,-7.0322225549999757],[113.89020050500005,-7.03226966699998],[113.89026760599995,-7.0323010760000102],[113.89035248799996,-7.0323329270000272],[113.89042391999999,-7.032379805000005],[113.89061667500005,-7.0324461899999733],[113.89092013200002,-7.0326748090000137],[113.89099233900004,-7.0327627190000044],[113.89111258000003,-7.0328549800000246],[113.89126840799997,-7.0329977819999954],[113.89140260900001,-7.033117706999974],[113.89151682299996,-7.0332347770000183],[113.89162532600005,-7.0333047330000227],[113.89176095599998,-7.0333832559999792],[113.89202334399999,-7.0335248829999841],[113.892242506,-7.0337424670000246],[113.89234783100005,-7.0338414689999809],[113.89240927900005,-7.0339454740000065],[113.89249303600002,-7.0340996639999958],[113.89253682000003,-7.0341834199999766],[113.892624383,-7.0343033469999909],[113.89265483999998,-7.0343566450000026],[113.89266626200003,-7.0344023310000239],[113.89269671800002,-7.0345489059999977],[113.89275953699996,-7.0347944659999939],[113.89280141400002,-7.0349029689999725],[113.89286501799995,-7.0350096559999997],[113.89300047699999,-7.0353521330000035],[113.89318678100005,-7.0354656079999813],[113.89358259300002,-7.0356168409999782],[113.89374773999998,-7.0357141750000096],[113.89386049100005,-7.0357994510000026],[113.89420855499998,-7.036084451000022],[113.89427590100001,-7.0361214559999894],[113.89465561999998,-7.0363300959999719],[113.89514362900002,-7.036598233999996],[113.89568004,-7.0369144709999887],[113.89595043099996,-7.0370738760000222],[113.896317426,-7.0372680699999819],[113.89662735000002,-7.0374677610000163],[113.89724172700005,-7.0379249000000073],[113.89726493600006,-7.0379024960000152],[113.897391685,-7.0377801409999847],[113.89741162300004,-7.0377608950000194],[113.89943643699996,-7.0348866639999983],[113.90123301899996,-7.0323087730000111],[113.90123549800001,-7.0323052179999763],[113.90123908999999,-7.0323000600000114],[113.90059663800002,-7.0318507520000253],[113.90006554299998,-7.0314767009999741],[113.89947733999998,-7.0310569640000153],[113.89881204100004,-7.0305801200000246],[113.89815816600003,-7.0301189799999975],[113.89763135400005,-7.0297492120000129],[113.89709597499996,-7.0293594579999876],[113.89652490499998,-7.0289611339999851],[113.89594955200005,-7.0285571019999793],[113.89547127900005,-7.0282201699999973],[113.89541274400005,-7.0280988189999789],[113.895369286,-7.0279799219999859],[113.89168059899998,-7.0252650720000247],[113.891856448,-7.0250149510000028],[113.89192533100004,-7.0249399140000151],[113.89212504199998,-7.0246415899999874],[113.89232990000005,-7.0242595000000279],[113.89240266599995,-7.0242455019999852],[113.89246522799999,-7.0242455669999799],[113.89272445500001,-7.0238047010000173],[113.89273632599998,-7.0236262270000225],[113.89287596300005,-7.0233445349999784],[113.89294835600003,-7.0232462600000076],[113.89308215899996,-7.0233232069999758],[113.89335732899997,-7.0234587169999827],[113.89356283699999,-7.0232181680000281],[113.89395345900004,-7.0233934319999776],[113.89408682999999,-7.0233888149999757],[113.89411332899999,-7.023381153999992],[113.89418155500005,-7.023380732000021],[113.894340908,-7.023417505999987],[113.89443192299996,-7.0234245309999892],[113.894488647,-7.0234090050000191],[113.89454905699995,-7.0233746690000203],[113.89465481000002,-7.0233172900000227],[113.89476828700003,-7.0232787410000128],[113.89483651199998,-7.023278318999985],[113.89502570000002,-7.0232318060000125],[113.89516576300002,-7.0232602070000212],[113.89517891000003,-7.0232280590000187],[113.89558405800005,-7.0233770359999994],[113.89574967199997,-7.0234132279999812],[113.89574708299995,-7.0234405250000123],[113.89614214799997,-7.0235867619999794],[113.89658544700001,-7.0237915970000131],[113.896722705,-7.0234392830000161],[113.89679301499996,-7.0232703039999933],[113.896848019,-7.0232895550000194],[113.89688877599997,-7.022947500999976],[113.89691441299999,-7.0226802419999785],[113.89708779800003,-7.0226952479999909],[113.897222554,-7.0223244310000155],[113.89758664099998,-7.022472606000008],[113.89774691900004,-7.0219597170000156],[113.89778461100002,-7.0219711149999853],[113.89790953299996,-7.0220071219999909],[113.89796224700001,-7.0220223160000046],[113.89800457800004,-7.0217779879999966],[113.898086541,-7.0216117290000284],[113.89800170199999,-7.021563513999979],[113.89792490900004,-7.0215198710000095],[113.89801356299995,-7.0214099749999832],[113.89805965999994,-7.0213528340000266],[113.89811841999995,-7.0210764280000149],[113.89812403099995,-7.0209589660000233],[113.89814663699997,-7.0207441169999925],[113.89825771100004,-7.0205108360000281],[113.897589079,-7.0202463319999993],[113.89728161200003,-7.0198317300000213],[113.89745735300005,-7.0191675429999805],[113.89783083700001,-7.0186469320000242],[113.898127778,-7.0181563310000001],[113.89822292300005,-7.0179635260000168],[113.89813560100004,-7.017781962000015],[113.89814971500005,-7.0176047410000137],[113.89851158099998,-7.0170865530000128],[113.89946144999999,-7.0158310809999875],[113.89961900799995,-7.0149279999999976],[113.89971803599997,-7.0144470239999919],[113.89977800099996,-7.0140039550000211],[113.89982703500004,-7.0136500169999749],[113.899900968,-7.0132830090000198],[113.90001201200005,-7.0128520000000094],[113.90021097800002,-7.0122180230000026],[113.90028400899996,-7.0118259989999956],[113.90025598499994,-7.0113580020000086],[113.90056402499999,-7.0095050069999729],[113.90058002399996,-7.0092829719999941],[113.90056102899996,-7.0090449840000133],[113.90067896599999,-7.0087879949999774],[113.90079600299998,-7.0084460130000252],[113.900844968,-7.0081049949999965],[113.900962015,-7.0076439590000064],[113.90119797600005,-7.0072169659999872],[113.90123101999995,-7.0069780250000235],[113.90121200199997,-7.0066880090000154],[113.90119097100001,-7.0061089559999914],[113.90145703300004,-7.004930972000011],[113.901541017,-7.0046580239999798],[113.90158998699997,-7.0044020049999745],[113.90158899999994,-7.0041460219999863],[113.90158910299999,-7.0041091389999792],[113.90149864600005,-7.0040572870000233],[113.90140611799995,-7.0039974890000281],[113.90142991300002,-7.0038071299999842],[113.90150703699999,-7.0037039750000076],[113.901697603,-7.0035870300000056],[113.90170535100003,-7.0035762370000043],[113.90197302399997,-7.0031009929999755],[113.90193198199995,-7.002902975999973],[113.90167197799997,-7.0027459660000204],[113.90145196900005,-7.0025090400000067],[113.90151109700003,-7.0023946860000024],[113.90150724499995,-7.00237350499998],[113.901548886,-7.0022188390000224],[113.90164406400004,-7.0020998659999805],[113.90178088200003,-7.0018738179999787],[113.90200098299999,-7.0014990519999856],[113.90206960900002,-7.0013789569999858],[113.902117492,-7.0009200800000144],[113.90210754400005,-7.0008775250000213],[113.90199602500002,-7.000478993999991],[113.90199261299995,-7.000469043999999],[113.90194744500002,-7.000392603000023],[113.90191175500001,-7.0002557849999789],[113.90194744500002,-7.0000892219999855],[113.90200095299997,-6.9999513120000074],[113.90203403099997,-6.9997760059999905],[113.90203997399999,-6.9997240330000068],[113.90202403700005,-6.9996789670000226],[113.90199397100002,-6.9996519640000088],[113.901941964,-6.9996340370000212],[113.90189003099999,-6.9996204789999865],[113.90167896599996,-6.9995350359999975],[113.90165765100005,-6.9995103510000263],[113.90162897499999,-6.999477144000025],[113.901589973,-6.9994319799999971],[113.901529117,-6.9993965699999876],[113.90152299800002,-6.9993930080000268],[113.90146882800002,-6.9993757930000129],[113.90139344900001,-6.999347551000028],[113.90134496300004,-6.9993240119999882],[113.90132251399996,-6.999299365000013],[113.90129301299999,-6.9992669750000118],[113.90123503300003,-6.9991509899999755],[113.90116703000001,-6.9990300100000127],[113.90114201100005,-6.9989270080000097],[113.90114099499999,-6.9988229560000264],[113.90116002900004,-6.9987660229999733],[113.90119602000004,-6.9987020290000146],[113.90124097299997,-6.9985920029999988],[113.90127703200005,-6.9985029879999843],[113.90129500299997,-6.9984550049999825],[113.90129100900003,-6.9984239560000105],[113.90125499600003,-6.9983879569999772],[113.90122698100004,-6.9983549789999984],[113.901208,-6.9982999970000037],[113.901202012,-6.9982600170000069],[113.90116799899999,-6.9982459550000158],[113.901135006,-6.9982520300000033],[113.90107399600004,-6.9982609880000268],[113.90105531200004,-6.9982529900000259],[113.901065894,-6.9981810279999763],[113.90106999800003,-6.9980969769999888],[113.90105401999995,-6.9980210209999996],[113.90104201700001,-6.9979849619999754],[113.90101546899996,-6.9979538879999836],[113.90098996799998,-6.9979240399999867],[113.90096502799997,-6.9978820110000015],[113.90095600200004,-6.9978210049999916],[113.90093398500005,-6.9977690219999999],[113.90089998500002,-6.9977089849999743],[113.90089358499995,-6.9976744069999768],[113.90088700399997,-6.9975630019999926],[113.900902868,-6.9975001220000195],[113.900914005,-6.997455978000005],[113.90092122399994,-6.9974231620000182],[113.90093402100001,-6.9973649840000007],[113.90092101200003,-6.9973229710000169],[113.90090299999997,-6.9973040230000265],[113.90086878299996,-6.9973044299999856],[113.90082397100002,-6.997304961999987],[113.90077605800002,-6.9972992389999717],[113.90076106100003,-6.9972974489999729],[113.90069648999997,-6.9972897349999812],[113.90063198099995,-6.9972820309999975],[113.90058599500003,-6.9972609949999764],[113.90051999699995,-6.997231510000006],[113.90051802699998,-6.9971820160000107],[113.900547996,-6.9971329640000022],[113.90057802299998,-6.9970690069999932],[113.90058400299995,-6.9970229929999732],[113.90058998799998,-6.9969659590000219],[113.90060196900004,-6.9969140370000105],[113.90061396999999,-6.9968409780000229],[113.900622,-6.996776978000014],[113.90061897700002,-6.9966979600000059],[113.90061897400005,-6.9966369859999986],[113.90065510800002,-6.9965794619999997],[113.90069997099999,-6.9965080399999806],[113.900745003,-6.9964230350000207],[113.900762988,-6.9963650239999993],[113.90074698800004,-6.9961889830000246],[113.90072494699996,-6.9959609229999842],[113.90072700999997,-6.9958880440000257],[113.90071697799999,-6.9958089770000242],[113.90070097900002,-6.9957659890000059],[113.90066097700003,-6.9957239619999996],[113.90060901000004,-6.9956999849999875],[113.90054803600003,-6.9957029799999759],[113.90047500900005,-6.9956980110000018],[113.90045697899996,-6.9956639779999819],[113.90045602999999,-6.9956190020000122],[113.90048698800001,-6.9955609990000198],[113.90051702699998,-6.9954750019999778],[113.90051901899994,-6.9953990259999728],[113.90050701600001,-6.9953510440000173],[113.90046103099996,-6.9953179980000186],[113.90043971099999,-6.9952863870000215],[113.90042303600001,-6.9951780409999742],[113.90041899300002,-6.9950831940000171],[113.90041443899997,-6.9949763110000163],[113.90041004299997,-6.994873143999996],[113.90040603099999,-6.9947789859999716],[113.90038403100004,-6.9947059560000184],[113.900337992,-6.9946400289999815],[113.90027700200005,-6.9946040030000063],[113.90018797599998,-6.9945799829999942],[113.90011273000005,-6.9945834920000038],[113.90005930699999,-6.9945859800000107],[113.89992802899997,-6.9945519589999776],[113.89987598300002,-6.9944790239999861],[113.89981400500005,-6.9944280070000104],[113.89974102899998,-6.9944069590000026],[113.89965597200001,-6.9943979990000003],[113.89960901500001,-6.9942799599999717],[113.89962996400004,-6.994195010999988],[113.89963821799995,-6.994107391],[113.89962489799996,-6.9941069100000277],[113.89962296600004,-6.9941000289999806],[113.89959303499995,-6.9940949740000065],[113.89946199300005,-6.9941010210000059],[113.89926396400006,-6.9940780329999939],[113.89922438899998,-6.994044099000007],[113.899132732,-6.9939538230000267],[113.89904902399996,-6.9938640149999856],[113.89895697899999,-6.9938220380000189],[113.89889902100003,-6.9937940319999825],[113.898776989,-6.9937499810000077],[113.89881303200002,-6.9936699990000193],[113.898901024,-6.9935749730000225],[113.89892803600003,-6.9935420180000278],[113.89892201099997,-6.9935080010000092],[113.89890896400004,-6.9934720410000182],[113.898878986,-6.9934109829999898],[113.89891198099997,-6.9933809710000219],[113.89895403000003,-6.9933200120000265],[113.89900901399994,-6.993312990999982],[113.89908901599995,-6.9933610040000076],[113.89907099899995,-6.993437981999989],[113.89902501799997,-6.9935020369999847],[113.89900796500001,-6.9935539909999989],[113.89909301800003,-6.9936230189999833],[113.89914196300003,-6.9936040200000207],[113.89919003399996,-6.9935519659999841],[113.89923003599995,-6.9935340150000229],[113.899299993,-6.9935490299999969],[113.89930502100003,-6.9935060029999931],[113.89929902699998,-6.9934770439999738],[113.89929100699999,-6.993421995999995],[113.89932397699999,-6.9933880080000108],[113.89935397900001,-6.9933079730000145],[113.89939403100004,-6.9931650080000054],[113.89942498400001,-6.9930819859999929],[113.89945302199999,-6.9930100039999843],[113.89948799299998,-6.9929740169999945],[113.89953100399998,-6.992960021999977],[113.89960599999995,-6.9929580240000178],[113.89965603099995,-6.9929459740000084],[113.89973503199997,-6.9928799990000243],[113.89978300300004,-6.9928359859999887],[113.89982996399999,-6.9928219650000187],[113.899882026,-6.9928249860000165],[113.89991301099997,-6.9928559599999858],[113.89994797999998,-6.9929039790000047],[113.89999896699999,-6.9929259749999915],[113.90006097499997,-6.9929460070000005],[113.90010303400004,-6.9929710399999863],[113.90014296499999,-6.9930379990000233],[113.90018098899998,-6.9930859990000158],[113.90018702199995,-6.9930849680000051],[113.90021502699994,-6.9930679949999899],[113.90029198900004,-6.9930340089999845],[113.90030999099997,-6.9929909919999886],[113.90030798700002,-6.9929079930000171],[113.90032998499998,-6.9928599830000167],[113.90037501500001,-6.9928230340000255],[113.90040002700005,-6.9927799719999939],[113.90039502100001,-6.9927060250000181],[113.90040099400005,-6.992659016999994],[113.90043801499996,-6.9926169670000036],[113.90046602100006,-6.9925879799999962],[113.90045997300001,-6.9925020250000216],[113.90040799400003,-6.9924400190000142],[113.90032902899998,-6.9923910059999912],[113.900256023,-6.9923409620000143],[113.90020400599997,-6.9922489680000126],[113.90015201200004,-6.9921360160000177],[113.90010797399998,-6.9920680010000069],[113.90005098300003,-6.9920520019999799],[113.90000798400001,-6.9920739909999838],[113.899907998,-6.9920799810000176],[113.89985002499998,-6.9919890180000266],[113.89985297700002,-6.9919479910000177],[113.89993102200003,-6.9918479670000124],[113.89977291800005,-6.9917594940000072],[113.89975900699994,-6.9917510199999811],[113.89967038600003,-6.991702115999999],[113.89967030000003,-6.9917020689999845],[113.89958498399994,-6.9916549899999723],[113.89947698499998,-6.9916130199999884],[113.89932002800003,-6.991575958999988],[113.89928200199995,-6.9915760119999959],[113.89906597900006,-6.9915609930000073],[113.89892702199995,-6.9915289699999903],[113.89871098799995,-6.991511963999983],[113.898499969,-6.9916190380000103],[113.89841103499998,-6.9916459610000175],[113.89831100699996,-6.9917360019999819],[113.89819802500006,-6.9917690350000044],[113.89806806599995,-6.9916795190000016],[113.89805599700003,-6.9916619670000273],[113.89801501900001,-6.9916429799999946],[113.89788199199995,-6.9915930340000045],[113.89785799000003,-6.9914370039999767],[113.89781402699998,-6.9913449599999922],[113.89774602600005,-6.9912480039999991],[113.89763700900005,-6.9911619609999889],[113.89750396900001,-6.9910980139999879],[113.89735197100003,-6.9910669729999881],[113.89723502799995,-6.991062004000014],[113.89717601200005,-6.9910679660000028],[113.89699799899995,-6.991147017000003],[113.89667802700001,-6.9911059890000047],[113.89656901599994,-6.9910090129999958],[113.89650602899997,-6.9909390369999755],[113.89644599500002,-6.9909130290000121],[113.89640600500002,-6.9908970179999983],[113.89635401700002,-6.990893992999986],[113.896272974,-6.990918970999985],[113.896240992,-6.9909440079999854],[113.89621403599995,-6.9909980109999879],[113.89618800200003,-6.9911170419999848],[113.89615002799997,-6.9911740019999797],[113.896115033,-6.9911819850000256],[113.89602297299996,-6.9912100120000105],[113.89596300400001,-6.9912550039999815],[113.89588802599997,-6.9912719939999874],[113.89563098300005,-6.9912310309999839],[113.89547097800005,-6.9911590309999951],[113.89540001800003,-6.991077990000008],[113.89535399199997,-6.9910379859999807],[113.89517902299997,-6.9908610250000152],[113.89511899499996,-6.9907390000000191],[113.89503899700003,-6.990606979000006],[113.89491998599999,-6.9905809740000109],[113.89485502399998,-6.990590047000012],[113.89480597500005,-6.9909550030000105],[113.89473398600001,-6.9911549810000224],[113.89516898600004,-6.9913739720000194],[113.89496102299995,-6.9918080159999931],[113.89490999999998,-6.9917680419999897],[113.89486897300003,-6.9917650429999867],[113.89482796200002,-6.9917889619999869],[113.89480003100005,-6.9918180380000194],[113.89478997000003,-6.9918430320000198],[113.894786028,-6.9918809949999741],[113.89479097200001,-6.991920977999996],[113.89479399599998,-6.991952031999972],[113.89466401200002,-6.9919240169999739],[113.89455001800002,-6.9918169570000259],[113.89450603399996,-6.9917940120000139],[113.89445200399996,-6.9917740210000261],[113.89439902300001,-6.9917550179999921],[113.89431997500003,-6.9916320240000118],[113.89432402399996,-6.9915629870000089],[113.89432498899998,-6.9915260380000177],[113.89431697400005,-6.9915080210000156],[113.89429298499999,-6.9914990450000118],[113.89426102899995,-6.9915040289999979],[113.89420802699999,-6.9915059799999995],[113.89416702400001,-6.9915189690000261],[113.89410799999996,-6.9915479680000203],[113.89394099399999,-6.991562000999977],[113.89384697200001,-6.991573958999993],[113.89382400600005,-6.991476997999996],[113.89386681300005,-6.9913754699999799],[113.89388898699997,-6.9913380340000231],[113.89389903699998,-6.9912990419999801],[113.89389398699996,-6.9912660109999933],[113.89384100100006,-6.9912099740000144],[113.89377597500004,-6.991159969000023],[113.89369399700001,-6.9910819780000111],[113.89362498200001,-6.9910260359999938],[113.89355502900003,-6.9909270140000217],[113.89355997600001,-6.9908220219999748],[113.89361900699998,-6.9906490409999833],[113.893640011,-6.9906089869999732],[113.89366201200005,-6.9905250269999897],[113.89359802199999,-6.990462008999998],[113.89351801400005,-6.9904009879999762],[113.89330896399997,-6.9902710260000163],[113.89316397499999,-6.9901189889999955],[113.89324396500001,-6.9900319629999785],[113.89302995599996,-6.9899237010000093],[113.89301103699995,-6.989910999000017],[113.89291000799994,-6.9898630229999981],[113.89281596700005,-6.9899690139999962],[113.892702762,-6.9901206409999759],[113.89269804000003,-6.9901269659999912],[113.89269786299997,-6.9901267309999753],[113.892615987,-6.9900649969999904],[113.892540027,-6.989995007999994],[113.89250700399998,-6.9899359550000213],[113.89250698499995,-6.9898599900000136],[113.892505992,-6.9897469939999723],[113.892523966,-6.9896629680000046],[113.89253999599998,-6.9895660369999746],[113.89251796500002,-6.9895119750000276],[113.89244500300003,-6.9894689750000225],[113.89236296900003,-6.9894420190000233],[113.89222496900004,-6.9894320270000208],[113.89221201400005,-6.9894109719999733],[113.89222500200003,-6.989389033000009],[113.89226799100004,-6.9893109939999931],[113.89229503399997,-6.9892830059999937],[113.892288979,-6.9892320079999877],[113.89226399100005,-6.9890970289999927],[113.89222999200001,-6.9890850460000138],[113.892154022,-6.989050012000007],[113.89206198500005,-6.989021039000022],[113.89198096899997,-6.9889779979999958],[113.89191501000005,-6.9889220379999983],[113.89184503000001,-6.988879020000013],[113.89179003100003,-6.9888470199999801],[113.89172496499998,-6.9888390190000109],[113.89169300399999,-6.9888309950000007],[113.891687004,-6.9886800030000131],[113.891697024,-6.9886120140000116],[113.89173999699995,-6.9886039819999723],[113.89178899700005,-6.9885820029999763],[113.89181003199997,-6.9885470059999761],[113.89180700700001,-6.988527965000003],[113.89179099199998,-6.9884819960000186],[113.89175496999997,-6.9884440079999877],[113.89171669899997,-6.988415539000016],[113.89171197400003,-6.9884120240000129],[113.89166803499995,-6.9883720079999989],[113.891638027,-6.9883179949999885],[113.89162197400003,-6.9882779889999824],[113.89161897300005,-6.9881780140000274],[113.89164499100002,-6.988055997999993],[113.891705978,-6.9879100140000219],[113.89178398800004,-6.987804030999996],[113.89158798300002,-6.9876489659999947],[113.89163501400003,-6.9875130049999825],[113.89154101899999,-6.9874809720000144],[113.89141598799995,-6.9874579820000235],[113.89130523400001,-6.9874372780000158],[113.89123399899995,-6.9874239640000155],[113.89115800299999,-6.987396968999974],[113.89115001699997,-6.9873349609999877],[113.89115198000002,-6.9872540150000191],[113.89116198500005,-6.9871349919999943],[113.891212989,-6.9869779570000219],[113.89121997200004,-6.9868890320000219],[113.89121200500006,-6.9867089640000017],[113.89119298699995,-6.9866959830000042],[113.89106302000005,-6.9866340039999955],[113.89094901199996,-6.9865850209999962],[113.89087099699998,-6.9865689690000181],[113.890797013,-6.9865900199999942],[113.89069598599997,-6.9866150270000276],[113.89063899500002,-6.9866229649999809],[113.89061802200001,-6.986595001000012],[113.89060257899996,-6.9863944140000172],[113.89058497099995,-6.9861656929999754],[113.89057799299997,-6.986075043000028],[113.89047003099995,-6.9860150060000024],[113.89051899399999,-6.9859139870000035],[113.89055512699997,-6.985849361000021],[113.89057098800004,-6.9858209910000255],[113.89060000300003,-6.9857620079999947],[113.89064500100005,-6.9856470159999731],[113.89068199999997,-6.9855769630000282],[113.89073703500003,-6.9855420310000227],[113.89083601899995,-6.9854880380000282],[113.89091203600003,-6.9854460199999835],[113.89090003399997,-6.9854219759999978],[113.89088398299998,-6.9853460179999729],[113.89089001499997,-6.9852720009999985],[113.89092802499999,-6.9852330169999846],[113.89095999000006,-6.9852050019999865],[113.89102197399995,-6.9851850190000278],[113.89119201799997,-6.9851800000000139],[113.89122303500005,-6.985179990000006],[113.891267008,-6.9851770110000189],[113.89133502799996,-6.9851680119999742],[113.891394967,-6.9851670119999767],[113.89142803499999,-6.9851849660000198],[113.89146896499994,-6.9852090119999843],[113.89152503499997,-6.985221045000003],[113.89158296300002,-6.9852199649999989],[113.89162499899999,-6.9852049840000063],[113.89168098300001,-6.9851669720000018],[113.89170698999999,-6.9851040359999956],[113.89171300700002,-6.9849789819999728],[113.89170997999997,-6.9848869560000253],[113.89169999900002,-6.9848160199999825],[113.89164702200003,-6.9847609720000037],[113.89158600500002,-6.9846960390000277],[113.89165502499998,-6.9845709620000207],[113.89169999299997,-6.9844630140000277],[113.89176400099996,-6.9843109590000267],[113.89175003499997,-6.9842830439999943],[113.89171799200005,-6.9842010419999951],[113.89171901999998,-6.9840529850000053],[113.891720975,-6.9839949830000023],[113.89174699099999,-6.9838969959999986],[113.89177503500002,-6.9837530209999841],[113.89177897299999,-6.9836900369999739],[113.891778004,-6.9836626939999746],[113.89177301799998,-6.9835219720000055],[113.89178703300001,-6.9833880190000173],[113.89179603399998,-6.9832390120000127],[113.89179498299995,-6.983153026000025],[113.89177799900006,-6.9830830340000034],[113.89175799899999,-6.9830070099999944],[113.89174796400005,-6.9829030120000084],[113.89174097700004,-6.9827729819999718],[113.89176197400002,-6.9827200110000263],[113.89181303299995,-6.9826929600000085],[113.89197303100002,-6.9826310060000196],[113.89205601399999,-6.9825699770000256],[113.89210801299998,-6.9825020010000003],[113.89213097000004,-6.98241595799999],[113.89200803200004,-6.9824420040000064],[113.89197748699996,-6.9824489360000257],[113.89194653799996,-6.9824657209999828],[113.891540824,-6.9825062439999783],[113.89144907800005,-6.9825154079999834],[113.89138392899997,-6.9825886159999868],[113.89131642200005,-6.9826644689999853],[113.89120034699999,-6.9826147819999846],[113.89086870799997,-6.9826479070000005],[113.89090066899996,-6.9825904439999817],[113.89093029799994,-6.9825371769999833],[113.89095161700004,-6.9824988450000092],[113.89081896200003,-6.9823497840000073],[113.89012251700001,-6.982316658000002],[113.89012251700001,-6.9821510350000153],[113.88992917799999,-6.9821993130000237],[113.88992353100002,-6.9822007239999948],[113.88982815500003,-6.9823232030000213],[113.88980745699996,-6.9823497840000073],[113.88943637199998,-6.9823355280000214],[113.88937632399995,-6.9823332230000119],[113.88933856300002,-6.9824589429999833],[113.88931699700004,-6.9824549869999828],[113.889221034,-6.9824420260000011],[113.889160006,-6.9824119589999896],[113.889138011,-6.9823390199999835],[113.88896503199999,-6.9823269799999821],[113.88875798799995,-6.982340985999997],[113.88875399400001,-6.982492040000011],[113.88854501900005,-6.9824830239999756],[113.88851434100002,-6.9825925110000071],[113.88847030099998,-6.9826218370000106],[113.88838140200005,-6.9826810330000058],[113.88788394100004,-6.9825816580000151],[113.887823583,-6.9826306400000249],[113.887657365,-6.9827655319999735],[113.88761862900003,-6.9827969699999812],[113.88751534599999,-6.9827822319999768],[113.887444985,-6.9829259640000032],[113.88742759800004,-6.9829135030000202],[113.88738499700003,-6.982882974000006],[113.88729298099997,-6.982844966000016],[113.88717596599997,-6.9828159649999861],[113.88711598299994,-6.9828100089999907],[113.88708071400004,-6.9829086650000249],[113.88703825799996,-6.982912908000003],[113.88690484799997,-6.9830728079999744],[113.88687243699997,-6.9831116540000266],[113.88672319900002,-6.9830785290000108],[113.88627548500006,-6.9832441529999869],[113.88584435300004,-6.9829460299999937],[113.88551271100005,-6.9829625930000248],[113.88521423500003,-6.9829957169999943],[113.88514999999995,-6.9830456199999844],[113.88512245699997,-6.9830670140000279],[113.88506499699997,-6.9831116540000266],[113.88489058100004,-6.9830483050000112],[113.88488259400003,-6.9830454059999738],[113.88482900400004,-6.9830654770000251],[113.88461728200002,-6.9831447810000213],[113.884631485,-6.9832405349999931],[113.884651899,-6.9833781699999804],[113.88468360800005,-6.983591964000027],[113.88464982799997,-6.9836410440000236],[113.88454689399998,-6.9837905879999767],[113.88450120699997,-6.9838569620000044],[113.88433538599998,-6.9838238369999885],[113.88407007399996,-6.9838900870000202],[113.88363492200006,-6.9838931329999809],[113.88350817699995,-6.9839621830000169],[113.88345251800001,-6.9839925050000033],[113.88341303499999,-6.9840516610000236],[113.88335302600001,-6.9841415679999841],[113.88295505799999,-6.9841084409999894],[113.88290709399996,-6.9841563479999991],[113.88289334599995,-6.984170081000002],[113.88278923799999,-6.9842740660000118],[113.88259025299999,-6.9842906279999966],[113.88240365900003,-6.9844562929999938],[113.88239137699998,-6.9844671989999938],[113.88229177599999,-6.9845556259999739],[113.88169482299998,-6.9842243780000217],[113.88146267499997,-6.984356876999982],[113.88113103399996,-6.9845390639999891],[113.88084913800003,-6.9847378140000274],[113.88050091599996,-6.9846715630000062],[113.88025218600001,-6.9847046880000221],[113.87977130800004,-6.9846053129999746],[113.87945624999998,-6.9847378140000274],[113.87945559499997,-6.9847293249999893],[113.87944116799997,-6.9845420049999802],[113.87943701400002,-6.9845219740000175],[113.87894220600003,-6.9844231280000031],[113.87842816399996,-6.9844893790000242],[113.87811310400002,-6.984356876999982],[113.87774829900002,-6.9842906279999966],[113.87734239199995,-6.984177107999983],[113.87733374899994,-6.9841746910000211],[113.87732777600002,-6.9842641739999749],[113.87731716600001,-6.9844231280000031],[113.87673679500006,-6.984356876999982],[113.87643027599995,-6.9844625810000025],[113.876378918,-6.9844802950000258],[113.87628397699996,-6.9844743659999722],[113.876073389,-6.9844612200000142],[113.87605182599998,-6.9844598750000273],[113.87592829200003,-6.9843708529999731],[113.87590274000002,-6.9841309290000027],[113.87565741900005,-6.9836459750000017],[113.875539871,-6.9834724140000048],[113.87539676699998,-6.9834519940000064],[113.87520255300001,-6.9833396880000009],[113.87506967399997,-6.9832171730000141],[113.87502878600003,-6.9830027730000097],[113.87488568399999,-6.9830538209999986],[113.87437460199999,-6.9828802590000123],[113.87436437999997,-6.9825739710000221],[113.87409861599997,-6.9825739710000221],[113.87404750600001,-6.982441246999997],[113.87409861599997,-6.982318733999989],[113.87407817200005,-6.9821655879999867],[113.87399639900002,-6.9821043320000058],[113.87381240900004,-6.9819920269999898],[113.87348531600003,-6.9820328650000079],[113.87346487399998,-6.981981817000019]]]},"properties":{"OBJECTID":9962,"NAMOBJ":"Kota Sumenep","FCODE":"BA03070040","REMARK":null,"METADATA":"TASWIL1000020230928_DATA_BATAS_DESAKELURAHAN","SRS_ID":"SRGI 2013","KDBBPS":null,"KDCBPS":null,"KDCPUM":"35.29.01","KDEBPS":null,"KDEPUM":null,"KDPBPS":null,"KDPKAB":"35.29","KDPPUM":"35","LUASWH":null,"TIPADM":3,"WADMKC":"Kota Sumenep","WADMKD":null,"WADMKK":"Sumenep","WADMPR":"Jawa Timur","WIADKC":null,"WIADKK":null,"WIADPR":null,"WIADKD":null,"UUPP":null,"LUAS":null,"SHAPE.AREA":0.0023804439178206002,"SHAPE.LEN":0.276013549938044}}]}